{
  "type": "FeatureCollection",
  "features": [
    {
      "type": "Feature",
      "properties": {
        "norad_id": 66611,
        "name": "STARLINK-35583",
        "group": "last-30-days",
        "lat": 33.48987366045681,
        "lon": -87.54648175730291,
        "alt_km": 439.64321926329376,
        "timestamp": "2025-12-22T04:03:37.885706+00:00",
        "meta_object_name": "STARLINK-35583",
        "meta_object_id": "2025-270Z",
        "meta_epoch": "2025-12-21T20:00:01.999008",
        "meta_mean_motion": 15.40640523,
        "meta_eccentricity": 0.0001453,
        "meta_inclination": 42.9999,
        "meta_ra_of_asc_node": 139.6256,
        "meta_arg_of_pericenter": 283.7756,
        "meta_mean_anomaly": 137.2712,
        "meta_ephemeris_type": 0,
        "meta_classification_type": "U",
        "meta_norad_cat_id": 66611,
        "meta_element_set_no": 999,
        "meta_rev_at_epoch": 596,
        "meta_bstar": 0.00207,
        "meta_mean_motion_dot": 0.00086983,
        "meta_mean_motion_ddot": 0,
        "tle_line1": "1 66611U 25270Z   25355.83335647  .00086983  00000+0  20700-2 0  9999",
        "tle_line2": "2 66611  42.9999 139.6256 0001453 283.7756 137.2712 15.40640523  5960"
      },
      "geometry": {
        "type": "Point",
        "coordinates": [
          -87.54648175730291,
          33.48987366045681
        ]
      }
    },
    {
      "type": "Feature",
      "properties": {
        "norad_id": 66612,
        "name": "STARLINK-36039",
        "group": "last-30-days",
        "lat": -34.94392449318092,
        "lon": 6.8662416311967,
        "alt_km": 445.856077496589,
        "timestamp": "2025-12-22T04:03:37.885716+00:00",
        "meta_object_name": "STARLINK-36039",
        "meta_object_id": "2025-270AA",
        "meta_epoch": "2025-12-21T17:42:02.564352",
        "meta_mean_motion": 15.4070942,
        "meta_eccentricity": 0.000241,
        "meta_inclination": 43.0003,
        "meta_ra_of_asc_node": 140.7777,
        "meta_arg_of_pericenter": 280.4232,
        "meta_mean_anomaly": 79.6352,
        "meta_ephemeris_type": 0,
        "meta_classification_type": "U",
        "meta_norad_cat_id": 66612,
        "meta_element_set_no": 999,
        "meta_rev_at_epoch": 573,
        "meta_bstar": 0.0001886,
        "meta_mean_motion_dot": 7.585e-05,
        "meta_mean_motion_ddot": 0,
        "tle_line1": "1 66612U 25270AA  25355.73752968  .00007585  00000+0  18860-3 0  9994",
        "tle_line2": "2 66612  43.0003 140.7777 0002410 280.4232  79.6352 15.40709420  5733"
      },
      "geometry": {
        "type": "Point",
        "coordinates": [
          6.8662416311967,
          -34.94392449318092
        ]
      }
    },
    {
      "type": "Feature",
      "properties": {
        "norad_id": 66613,
        "name": "STARLINK-36037",
        "group": "last-30-days",
        "lat": -42.48249122758662,
        "lon": 37.58029136258941,
        "alt_km": 446.3474002591238,
        "timestamp": "2025-12-22T04:03:37.885727+00:00",
        "meta_object_name": "STARLINK-36037",
        "meta_object_id": "2025-270AB",
        "meta_epoch": "2025-12-21T11:22:10.567488",
        "meta_mean_motion": 15.40728039,
        "meta_eccentricity": 0.00012938,
        "meta_inclination": 42.9987,
        "meta_ra_of_asc_node": 142.2364,
        "meta_arg_of_pericenter": 234.5292,
        "meta_mean_anomaly": 125.5444,
        "meta_ephemeris_type": 0,
        "meta_classification_type": "U",
        "meta_norad_cat_id": 66613,
        "meta_element_set_no": 999,
        "meta_rev_at_epoch": 569,
        "meta_bstar": 0.00091489288,
        "meta_mean_motion_dot": 0.0003814,
        "meta_mean_motion_ddot": 0,
        "tle_line1": "1 66613U 25270AB  25355.47373342  .00038140  00000+0  91489-3 0  9990",
        "tle_line2": "2 66613  42.9987 142.2364 0001293 234.5292 125.5444 15.40728039  5691"
      },
      "geometry": {
        "type": "Point",
        "coordinates": [
          37.58029136258941,
          -42.48249122758662
        ]
      }
    },
    {
      "type": "Feature",
      "properties": {
        "norad_id": 66614,
        "name": "STARLINK-36040",
        "group": "last-30-days",
        "lat": 9.511652699290629,
        "lon": 148.3149486659588,
        "alt_km": 442.33597166837353,
        "timestamp": "2025-12-22T04:03:37.885737+00:00",
        "meta_object_name": "STARLINK-36040",
        "meta_object_id": "2025-270AC",
        "meta_epoch": "2025-12-21T18:39:54.446400",
        "meta_mean_motion": 15.40759881,
        "meta_eccentricity": 0.0002932,
        "meta_inclination": 43,
        "meta_ra_of_asc_node": 140.2133,
        "meta_arg_of_pericenter": 276.7573,
        "meta_mean_anomaly": 83.295,
        "meta_ephemeris_type": 0,
        "meta_classification_type": "U",
        "meta_norad_cat_id": 66614,
        "meta_element_set_no": 999,
        "meta_rev_at_epoch": 558,
        "meta_bstar": 0.0015063,
        "meta_mean_motion_dot": 0.00063274,
        "meta_mean_motion_ddot": 0,
        "tle_line1": "1 66614U 25270AC  25355.77771350  .00063274  00000+0  15063-2 0  9994",
        "tle_line2": "2 66614  43.0000 140.2133 0002932 276.7573  83.2950 15.40759881  5582"
      },
      "geometry": {
        "type": "Point",
        "coordinates": [
          148.3149486659588,
          9.511652699290629
        ]
      }
    },
    {
      "type": "Feature",
      "properties": {
        "norad_id": 66615,
        "name": "STARLINK-35988",
        "group": "last-30-days",
        "lat": -36.445809969943916,
        "lon": 85.72047999807893,
        "alt_km": 445.03759325459487,
        "timestamp": "2025-12-22T04:03:37.885749+00:00",
        "meta_object_name": "STARLINK-35988",
        "meta_object_id": "2025-270AD",
        "meta_epoch": "2025-12-21T18:59:15.342720",
        "meta_mean_motion": 15.40733012,
        "meta_eccentricity": 0.0003356,
        "meta_inclination": 43.0002,
        "meta_ra_of_asc_node": 140.3193,
        "meta_arg_of_pericenter": 263.145,
        "meta_mean_anomaly": 96.9025,
        "meta_ephemeris_type": 0,
        "meta_classification_type": "U",
        "meta_norad_cat_id": 66615,
        "meta_element_set_no": 999,
        "meta_rev_at_epoch": 558,
        "meta_bstar": 0.00090835,
        "meta_mean_motion_dot": 0.00037875,
        "meta_mean_motion_ddot": 0,
        "tle_line1": "1 66615U 25270AD  25355.79114980  .00037875  00000+0  90835-3 0  9996",
        "tle_line2": "2 66615  43.0002 140.3193 0003356 263.1450  96.9025 15.40733012  5589"
      },
      "geometry": {
        "type": "Point",
        "coordinates": [
          85.72047999807893,
          -36.445809969943916
        ]
      }
    },
    {
      "type": "Feature",
      "properties": {
        "norad_id": 66616,
        "name": "STARLINK-35391",
        "group": "last-30-days",
        "lat": 25.214082136510907,
        "lon": 168.2510937385164,
        "alt_km": 440.48374460427476,
        "timestamp": "2025-12-22T04:03:37.885759+00:00",
        "meta_object_name": "STARLINK-35391",
        "meta_object_id": "2025-270AE",
        "meta_epoch": "2025-12-21T20:00:01.999008",
        "meta_mean_motion": 15.40616909,
        "meta_eccentricity": 0.0001339,
        "meta_inclination": 43.0002,
        "meta_ra_of_asc_node": 139.8357,
        "meta_arg_of_pericenter": 283.912,
        "meta_mean_anomaly": 49.9657,
        "meta_ephemeris_type": 0,
        "meta_classification_type": "U",
        "meta_norad_cat_id": 66616,
        "meta_element_set_no": 999,
        "meta_rev_at_epoch": 596,
        "meta_bstar": 0.0019472,
        "meta_mean_motion_dot": 0.00081687,
        "meta_mean_motion_ddot": 0,
        "tle_line1": "1 66616U 25270AE  25355.83335647  .00081687  00000+0  19472-2 0  9994",
        "tle_line2": "2 66616  43.0002 139.8357 0001339 283.9120  49.9657 15.40616909  5964"
      },
      "geometry": {
        "type": "Point",
        "coordinates": [
          168.2510937385164,
          25.214082136510907
        ]
      }
    },
    {
      "type": "Feature",
      "properties": {
        "norad_id": 66617,
        "name": "STARLINK-35940",
        "group": "last-30-days",
        "lat": -51.44827763170175,
        "lon": 32.839303854483724,
        "alt_km": 452.7654856794361,
        "timestamp": "2025-12-22T04:03:37.885770+00:00",
        "meta_object_name": "STARLINK-35940",
        "meta_object_id": "2025-271A",
        "meta_epoch": "2025-12-21T17:35:53.033280",
        "meta_mean_motion": 15.39654335,
        "meta_eccentricity": 0.0001357,
        "meta_inclination": 53.1592,
        "meta_ra_of_asc_node": 144.7069,
        "meta_arg_of_pericenter": 88.6056,
        "meta_mean_anomaly": 271.5105,
        "meta_ephemeris_type": 0,
        "meta_classification_type": "U",
        "meta_norad_cat_id": 66617,
        "meta_element_set_no": 999,
        "meta_rev_at_epoch": 559,
        "meta_bstar": 0.00050949,
        "meta_mean_motion_dot": 0.00020056,
        "meta_mean_motion_ddot": 0,
        "tle_line1": "1 66617U 25271A   25355.73325270  .00020056  00000+0  50949-3 0  9994",
        "tle_line2": "2 66617  53.1592 144.7069 0001357  88.6056 271.5105 15.39654335  5597"
      },
      "geometry": {
        "type": "Point",
        "coordinates": [
          32.839303854483724,
          -51.44827763170175
        ]
      }
    }
  ]
}